MATS                    
1 54227U 22147A   26068.98542601  .00004118  00000+0  29671-3 0  9994
2 54227  97.6844  71.0610 0012971 166.9988 193.1575 15.04668680182840
STARLINK-6131           
1 57107U 23090G   26068.82838325  .00000441  00000+0  47691-4 0  9994
2 57107  43.0032 273.9503 0001294 267.6547  92.4147 15.02532253150434
